CCSDS_OMM_VERS = 2.0
CREATION_DATE  = 
ORIGINATOR     = 

OBJECT_NAME    = SL-14 R/B
OBJECT_ID      = 1986-046B
CENTER_NAME    = EARTH
REF_FRAME      = TEME
TIME_SYSTEM    = UTC
MEAN_ELEMENT_THEORY = SGP/SGP4

EPOCH          = 2025-11-30T01:13:08.488416
MEAN_MOTION    = 14.85464011
ECCENTRICITY   = .0022714
INCLINATION    = 82.4814
RA_OF_ASC_NODE = 174.2975
ARG_OF_PERICENTER = 193.8533
MEAN_ANOMALY   = 166.2063

EPHEMERIS_TYPE = 0
CLASSIFICATION_TYPE = U
NORAD_CAT_ID   = 16792
ELEMENT_SET_NO = 999
REV_AT_EPOCH   = 11161
BSTAR          = .64831E-4
MEAN_MOTION_DOT = .586E-5
MEAN_MOTION_DDOT = 0

CCSDS_OMM_VERS = 2.0
CREATION_DATE  = 
ORIGINATOR     = 

OBJECT_NAME    = SL-14 R/B
OBJECT_ID      = 1986-055B
CENTER_NAME    = EARTH
REF_FRAME      = TEME
TIME_SYSTEM    = UTC
MEAN_ELEMENT_THEORY = SGP/SGP4

EPOCH          = 2025-11-30T03:15:04.995072
MEAN_MOTION    = 14.85511094
ECCENTRICITY   = .0017717
INCLINATION    = 82.5215
RA_OF_ASC_NODE = 220.2150
ARG_OF_PERICENTER = 304.6377
MEAN_ANOMALY   = 216.3690

EPHEMERIS_TYPE = 0
CLASSIFICATION_TYPE = U
NORAD_CAT_ID   = 16882
ELEMENT_SET_NO = 999
REV_AT_EPOCH   = 10458
BSTAR          = .67722E-4
MEAN_MOTION_DOT = .61E-5
MEAN_MOTION_DDOT = 0

CCSDS_OMM_VERS = 2.0
CREATION_DATE  = 
ORIGINATOR     = 

OBJECT_NAME    = AJISAI (EGS)
OBJECT_ID      = 1986-061A
CENTER_NAME    = EARTH
REF_FRAME      = TEME
TIME_SYSTEM    = UTC
MEAN_ELEMENT_THEORY = SGP/SGP4

EPOCH          = 2025-11-30T03:52:40.778976
MEAN_MOTION    = 12.44514136
ECCENTRICITY   = .0011253
INCLINATION    = 50.0112
RA_OF_ASC_NODE = 39.3938
ARG_OF_PERICENTER = 34.3071
MEAN_ANOMALY   = 154.9283

EPHEMERIS_TYPE = 0
CLASSIFICATION_TYPE = U
NORAD_CAT_ID   = 16908
ELEMENT_SET_NO = 999
REV_AT_EPOCH   = 45560
BSTAR          = .13205E-4
MEAN_MOTION_DOT = -.96E-6
MEAN_MOTION_DDOT = 0

CCSDS_OMM_VERS = 2.0
CREATION_DATE  = 
ORIGINATOR     = 

OBJECT_NAME    = COSMOS 1812
OBJECT_ID      = 1987-003A
CENTER_NAME    = EARTH
REF_FRAME      = TEME
TIME_SYSTEM    = UTC
MEAN_ELEMENT_THEORY = SGP/SGP4

EPOCH          = 2025-11-29T21:18:13.645152
MEAN_MOTION    = 15.72471517
ECCENTRICITY   = .0006853
INCLINATION    = 82.4871
RA_OF_ASC_NODE = 305.8975
ARG_OF_PERICENTER = 103.5187
MEAN_ANOMALY   = 256.6840

EPHEMERIS_TYPE = 0
CLASSIFICATION_TYPE = U
NORAD_CAT_ID   = 17295
ELEMENT_SET_NO = 999
REV_AT_EPOCH   = 12863
BSTAR          = .65781E-3
MEAN_MOTION_DOT = .88375E-3
MEAN_MOTION_DDOT = 0

CCSDS_OMM_VERS = 2.0
CREATION_DATE  = 
ORIGINATOR     = 

OBJECT_NAME    = SL-14 R/B
OBJECT_ID      = 1987-024B
CENTER_NAME    = EARTH
REF_FRAME      = TEME
TIME_SYSTEM    = UTC
MEAN_ELEMENT_THEORY = SGP/SGP4

EPOCH          = 2025-11-30T01:16:18.564096
MEAN_MOTION    = 14.86004464
ECCENTRICITY   = .0017092
INCLINATION    = 82.5282
RA_OF_ASC_NODE = 186.3719
ARG_OF_PERICENTER = 227.8080
MEAN_ANOMALY   = 132.1686

EPHEMERIS_TYPE = 0
CLASSIFICATION_TYPE = U
NORAD_CAT_ID   = 17567
ELEMENT_SET_NO = 999
REV_AT_EPOCH   = 7333
BSTAR          = .60614E-4
MEAN_MOTION_DOT = .555E-5
MEAN_MOTION_DDOT = 0

CCSDS_OMM_VERS = 2.0
CREATION_DATE  = 
ORIGINATOR     = 

OBJECT_NAME    = COSMOS 1833
OBJECT_ID      = 1987-027A
CENTER_NAME    = EARTH
REF_FRAME      = TEME
TIME_SYSTEM    = UTC
MEAN_ELEMENT_THEORY = SGP/SGP4

EPOCH          = 2025-11-29T21:42:34.994880
MEAN_MOTION    = 14.13018051
ECCENTRICITY   = .0021986
INCLINATION    = 70.9123
RA_OF_ASC_NODE = 175.7593
ARG_OF_PERICENTER = 349.8182
MEAN_ANOMALY   = 10.2490

EPHEMERIS_TYPE = 0
CLASSIFICATION_TYPE = U
NORAD_CAT_ID   = 17589
ELEMENT_SET_NO = 999
REV_AT_EPOCH   = 99621
BSTAR          = .25307E-4
MEAN_MOTION_DOT = -.1E-7
MEAN_MOTION_DDOT = 0

CCSDS_OMM_VERS = 2.0
CREATION_DATE  = 
ORIGINATOR     = 

OBJECT_NAME    = SL-16 R/B
OBJECT_ID      = 1987-027B
CENTER_NAME    = EARTH
REF_FRAME      = TEME
TIME_SYSTEM    = UTC
MEAN_ELEMENT_THEORY = SGP/SGP4

EPOCH          = 2025-11-29T21:14:56.202144
MEAN_MOTION    = 14.17151029
ECCENTRICITY   = .0007407
INCLINATION    = 71.0013
RA_OF_ASC_NODE = 126.8038
ARG_OF_PERICENTER = 273.0849
MEAN_ANOMALY   = 86.9428

EPHEMERIS_TYPE = 0
CLASSIFICATION_TYPE = U
NORAD_CAT_ID   = 17590
ELEMENT_SET_NO = 999
REV_AT_EPOCH   = 120
BSTAR          = .13545E-3
MEAN_MOTION_DOT = .225E-5
MEAN_MOTION_DDOT = 0

CCSDS_OMM_VERS = 2.0
CREATION_DATE  = 
ORIGINATOR     = 

OBJECT_NAME    = SL-14 R/B
OBJECT_ID      = 1987-038B
CENTER_NAME    = EARTH
REF_FRAME      = TEME
TIME_SYSTEM    = UTC
MEAN_ELEMENT_THEORY = SGP/SGP4

EPOCH          = 2025-11-30T03:09:25.386912
MEAN_MOTION    = 14.85242847
ECCENTRICITY   = .0020492
INCLINATION    = 82.5028
RA_OF_ASC_NODE = 30.5755
ARG_OF_PERICENTER = 130.9387
MEAN_ANOMALY   = 229.3607

EPHEMERIS_TYPE = 0
CLASSIFICATION_TYPE = U
NORAD_CAT_ID   = 17912
ELEMENT_SET_NO = 999
REV_AT_EPOCH   = 6445
BSTAR          = .60609E-4
MEAN_MOTION_DOT = .546E-5
MEAN_MOTION_DDOT = 0

CCSDS_OMM_VERS = 2.0
CREATION_DATE  = 
ORIGINATOR     = 

OBJECT_NAME    = COSMOS 1844
OBJECT_ID      = 1987-041A
CENTER_NAME    = EARTH
REF_FRAME      = TEME
TIME_SYSTEM    = UTC
MEAN_ELEMENT_THEORY = SGP/SGP4

EPOCH          = 2025-11-30T01:05:10.559040
MEAN_MOTION    = 14.14528171
ECCENTRICITY   = .0030582
INCLINATION    = 70.8994
RA_OF_ASC_NODE = 244.3449
ARG_OF_PERICENTER = 177.0963
MEAN_ANOMALY   = 183.0342

EPHEMERIS_TYPE = 0
CLASSIFICATION_TYPE = U
NORAD_CAT_ID   = 17973
ELEMENT_SET_NO = 999
REV_AT_EPOCH   = 98949
BSTAR          = -.43393E-4
MEAN_MOTION_DOT = -.132E-5
MEAN_MOTION_DDOT = 0

CCSDS_OMM_VERS = 2.0
CREATION_DATE  = 
ORIGINATOR     = 

OBJECT_NAME    = SL-14 R/B
OBJECT_ID      = 1987-055B
CENTER_NAME    = EARTH
REF_FRAME      = TEME
TIME_SYSTEM    = UTC
MEAN_ELEMENT_THEORY = SGP/SGP4

EPOCH          = 2025-11-30T01:23:55.876704
MEAN_MOTION    = 14.85499851
ECCENTRICITY   = .0020287
INCLINATION    = 82.4998
RA_OF_ASC_NODE = 82.9387
ARG_OF_PERICENTER = 347.1286
MEAN_ANOMALY   = 12.9409

EPHEMERIS_TYPE = 0
CLASSIFICATION_TYPE = U
NORAD_CAT_ID   = 18153
ELEMENT_SET_NO = 999
REV_AT_EPOCH   = 5514
BSTAR          = .72108E-4
MEAN_MOTION_DOT = .648E-5
MEAN_MOTION_DDOT = 0

CCSDS_OMM_VERS = 2.0
CREATION_DATE  = 
ORIGINATOR     = 

OBJECT_NAME    = COSMOS 1867
OBJECT_ID      = 1987-060A
CENTER_NAME    = EARTH
REF_FRAME      = TEME
TIME_SYSTEM    = UTC
MEAN_ELEMENT_THEORY = SGP/SGP4

EPOCH          = 2025-11-30T02:20:22.812000
MEAN_MOTION    = 14.31483087
ECCENTRICITY   = .0013623
INCLINATION    = 65.0099
RA_OF_ASC_NODE = 225.6055
ARG_OF_PERICENTER = 269.8683
MEAN_ANOMALY   = 90.0840

EPHEMERIS_TYPE = 0
CLASSIFICATION_TYPE = U
NORAD_CAT_ID   = 18187
ELEMENT_SET_NO = 999
REV_AT_EPOCH   = 568
BSTAR          = .26332E-4
MEAN_MOTION_DOT = -.3E-6
MEAN_MOTION_DDOT = 0

CCSDS_OMM_VERS = 2.0
CREATION_DATE  = 
ORIGINATOR     = 

OBJECT_NAME    = COSMOS 1892
OBJECT_ID      = 1987-088A
CENTER_NAME    = EARTH
REF_FRAME      = TEME
TIME_SYSTEM    = UTC
MEAN_ELEMENT_THEORY = SGP/SGP4

EPOCH          = 2025-11-29T23:49:34.057920
MEAN_MOTION    = 16.24930772
ECCENTRICITY   = .000562
INCLINATION    = 82.4597
RA_OF_ASC_NODE = 57.9133
ARG_OF_PERICENTER = 268.3820
MEAN_ANOMALY   = 91.6827

EPHEMERIS_TYPE = 0
CLASSIFICATION_TYPE = U
NORAD_CAT_ID   = 18421
ELEMENT_SET_NO = 999
REV_AT_EPOCH   = 8928
BSTAR          = .6744E-3
MEAN_MOTION_DOT = .1878971E-1
MEAN_MOTION_DDOT = -.12144E-5

