SL-14 R/B               
1 16792U 86046B   25334.05079269  .00000586  00000+0  64831-4 0  9998
2 16792  82.4814 174.2975 0022714 193.8533 166.2063 14.85464011111615
SL-14 R/B               
1 16882U 86055B   25334.13547448  .00000610  00000+0  67722-4 0  9996
2 16882  82.5215 220.2150 0017717 304.6377 216.3690 14.85511094104588
AJISAI (EGS)            
1 16908U 86061A   25334.16158309 -.00000096  00000+0  13205-4 0  9995
2 16908  50.0112  39.3938 0011253  34.3071 154.9283 12.44514136455603
COSMOS 1812             
1 17295U 87003A   25333.88765793  .00088375  00000+0  65781-3 0  9991
2 17295  82.4871 305.8975 0006853 103.5187 256.6840 15.72471517128631
SL-14 R/B               
1 17567U 87024B   25334.05299264  .00000555  00000+0  60614-4 0  9996
2 17567  82.5282 186.3719 0017092 227.8080 132.1686 14.86004464 73336
COSMOS 1833             
1 17589U 87027A   25333.90457170 -.00000001  00000+0  25307-4 0  9995
2 17589  70.9123 175.7593 0021986 349.8182  10.2490 14.13018051996219
SL-16 R/B               
1 17590U 87027B   25333.88537271  .00000225  00000+0  13545-3 0  9992
2 17590  71.0013 126.8038 0007407 273.0849  86.9428 14.17151029  1206
SL-14 R/B               
1 17912U 87038B   25334.13154383  .00000546  00000+0  60609-4 0  9990
2 17912  82.5028  30.5755 0020492 130.9387 229.3607 14.85242847 64453
COSMOS 1844             
1 17973U 87041A   25334.04526110 -.00000132  00000+0 -43393-4 0  9996
2 17973  70.8994 244.3449 0030582 177.0963 183.0342 14.14528171989491
SL-14 R/B               
1 18153U 87055B   25334.05828561  .00000648  00000+0  72108-4 0  9994
2 18153  82.4998  82.9387 0020287 347.1286  12.9409 14.85499851 55141
COSMOS 1867             
1 18187U 87060A   25334.09748625 -.00000030  00000+0  26332-4 0  9997
2 18187  65.0099 225.6055 0013623 269.8683  90.0840 14.31483087  5687
COSMOS 1892             
1 18421U 87088A   25333.99275530  .01878971 -12144-5  67440-3 0  9996
2 18421  82.4597  57.9133 0005620 268.3820  91.6827 16.24930772 89284
